STARLINK-31881          
1 59659U 24084F   24153.58334491 -.00090691  00000+0 -21851-2 0  9999
2 59659  42.9991 120.0374 0001617 280.2348 321.3504 15.40761792  5262
STARLINK-31885          
1 59660U 24084G   24153.58334491 -.00229629  00000+0 -56516-2 0  9992
2 59660  42.9992 119.7943 0001265 275.2149  67.1038 15.40727439  5193
STARLINK-31880          
1 59661U 24084H   24153.41668981 -.00009744  00000+0 -22615-3 0  9997
2 59661  42.9992 120.9081 0001848 328.2514 105.1961 15.40716488  5249
STARLINK-31886          
1 59662U 24084J   24153.32215314  .00004932  00000+0  89824-4 0  9994
2 59662  43.0013 121.2282 0002146 252.2466 107.8160 15.50585070  5182
STARLINK-31909          
1 59663U 24084K   24153.04835939 -.00000243  00000+0  16914-5 0  9998
2 59663  43.0017 122.6438 0001860 253.6924 106.3731 15.50573079  5141
STARLINK-31910          
1 59664U 24084L   24153.32181332  .00000728  00000+0  18233-4 0  9993
2 59664  42.9990 121.2242 0001583 255.0727 104.9958 15.50575498  5183
STARLINK-31894          
1 59665U 24084M   24153.32147494 -.00004180  00000+0 -65496-4 0  9996
2 59665  43.0004 121.2223 0002201 243.2375 116.8260 15.50560612  5143
STARLINK-31902          
1 59666U 24084N   24153.25671832 -.00003312  00000+0 -50691-4 0  9994
2 59666  42.9979 121.5953 0001427 249.9901 110.0805 15.50561363  5171
STARLINK-31913          
1 59667U 24084P   24153.58334491 -.00030569  00000+0 -72747-3 0  9997
2 59667  42.9989 120.0029 0001094 257.9410 356.0578 15.40700096  5272
STARLINK-31866          
1 59668U 24084Q   24153.19127029 -.00000984  00000+0 -10958-4 0  9997
2 59668  42.9994 121.9610 0001679 266.6636  93.4032 15.50567933  5168
STARLINK-31917          
1 59669U 24084R   24153.38485710  .00002588  00000+0  49920-4 0  9994
2 59669  42.9997 120.8357 0001509 251.0613 109.0084 15.50579004  5199
STARLINK-31860          
1 59670U 24084S   24153.58334491 -.00047647  00000+0 -11395-2 0  9997
2 59670  42.9993 119.8198 0001318 280.7733  47.9014 15.40726017  5198
STARLINK-31854          
1 59671U 24084T   24153.34012855  .00003627  00000+0  67617-4 0  9997
2 59671  43.0020 120.5092 0001701 271.6461  88.4204 15.50578761  5178
STARLINK-31842          
1 59672U 24084U   24153.58334491 -.00013269  00000+0 -31088-3 0  9994
2 59672  42.9994 119.7604 0001424 286.0698  67.4926 15.40705316  5197
STARLINK-31871          
1 59673U 24084V   24153.25465868 -.00003960  00000+0 -61752-4 0  9991
2 59673  42.9981 121.5775 0001597 258.1947 101.8734 15.50561554  5175
STARLINK-31875          
1 59674U 24084W   24153.58334491 -.00041223  00000+0 -98399-3 0  9995
2 59674  43.0000 119.9095 0001633 283.2218   8.1166 15.40726767  5331
STARLINK-31877          
1 59675U 24084X   24153.18955559 -.00002557  00000+0 -37790-4 0  9992
2 59675  42.9995 121.9461 0001899 261.1281  98.9364 15.50566680  5167
STARLINK-31884          
1 59676U 24084Y   24153.58334491 -.00059456  00000+0 -14256-2 0  9993
2 59676  43.0002 119.2669 0001644 281.4780 283.5377 15.40731939  5320
2024-085B               
1 59678U 24085B   24153.55755957  .00016409  00000+0  70111-3 0  9999
2 59678  97.4101 228.0419 0015669 185.3771 174.7300 15.22827747  3868
2024-085C               
1 59679U 24085C   24153.57022398  .00008954  00000+0  39579-3 0  9997
2 59679  97.4048 228.0075 0015174 174.4585 185.6822 15.21831406  3866
2024-085D               
1 59680U 24085D   24153.57150185  .00011216  00000+0  49481-3 0  9993
2 59680  97.4047 228.0060 0014815 172.5665 187.5793 15.21840750  3860
2024-085E               
1 59681U 24085E   24153.56269542  .00012105  00000+0  35053-3 0  9999
2 59681  97.3737 228.3915 0055036 262.6804  96.8181 15.34193740  3894
STARLINK-32108          
1 59682U 24086A   24153.58334491 -.01748340  00000+0 -30783-1 0  9992
2 59682  42.9997 141.2478 0001453 264.8041  66.3293 15.52889609  4889
STARLINK-32080          
1 59683U 24086B   24153.58334491  .00070974  00000+0  12054-2 0  9993
2 59683  43.0001 141.4710 0001567 294.6597 305.5991 15.50561947  4841
STARLINK-32091          
1 59684U 24086C   24153.41752706 -.00023756  00000+0 -56399-3 0  9998
2 59684  43.0012 144.2814 0000608 247.3314 112.7479 15.40659640  4887
STARLINK-32085          
1 59685U 24086D   24153.58334491 -.00699238  00000+0 -17787-1 0  9994
2 59685  43.0002 142.9061 0001095 278.6875  96.1487 15.41179375  4939
STARLINK-32100          
1 59686U 24086E   24153.58334491  .00131680  00000+0  92570-3 0  9990
2 59686  42.9993 140.3510 0000480 143.6492 189.5385 15.72981132  4896
STARLINK-32089          
1 59687U 24086F   24153.58334491 -.00010188  00000+0 -23696-3 0  9995
2 59687  42.9999 143.1768 0001045 244.3970  18.7116 15.40701015  4820
STARLINK-32103          
1 59688U 24086G   24153.36165818  .00020928  00000+0  50639-3 0  9995
2 59688  43.0000 144.7238 0001010 250.8355 109.2392 15.40728929  4865
2024-085A               
1 59677U 24085A   24153.56339914  .00025113  00000+0  10721-2 0  9992
2 59677  97.4044 228.0156 0014745 175.9020 184.2340 15.22780643  3860
