OBJECT_NAME,OBJECT_ID,EPOCH,MEAN_MOTION,ECCENTRICITY,INCLINATION,RA_OF_ASC_NODE,ARG_OF_PERICENTER,MEAN_ANOMALY,EPHEMERIS_TYPE,CLASSIFICATION_TYPE,NORAD_CAT_ID,ELEMENT_SET_NO,REV_AT_EPOCH,BSTAR,MEAN_MOTION_DOT,MEAN_MOTION_DDOT
STARLINK-31881,2024-084F,2024-06-01T14:00:01.000224,15.40761792,0.0001617,42.9991,120.0374,280.2348,321.3504,0,U,59659,999,526,-0.0021851,-0.00090691,0
STARLINK-31885,2024-084G,2024-06-01T14:00:01.000224,15.40727439,0.0001265,42.9992,119.7943,275.2149,67.1038,0,U,59660,999,519,-0.0056516,-0.00229629,0
STARLINK-31880,2024-084H,2024-06-01T10:00:01.999584,15.40716488,0.0001848,42.9992,120.9081,328.2514,105.1961,0,U,59661,999,524,-0.00022615,-9.744e-05,0
STARLINK-31886,2024-084J,2024-06-01T07:43:54.031296,15.5058507,0.0002146,43.0013,121.2282,252.2466,107.816,0,U,59662,999,518,8.9824e-05,4.932e-05,0
STARLINK-31909,2024-084K,2024-06-01T01:09:38.251296,15.50573079,0.000186,43.0017,122.6438,253.6924,106.3731,0,U,59663,999,514,1.6914e-06,-2.43e-06,0
STARLINK-31910,2024-084L,2024-06-01T07:43:24.670848,15.50575498,0.0001583,42.999,121.2242,255.0727,104.9958,0,U,59664,999,518,1.8233e-05,7.28e-06,0
STARLINK-31894,2024-084M,2024-06-01T07:42:55.434816,15.50560612,0.0002201,43.0004,121.2223,243.2375,116.826,0,U,59665,999,514,-6.5496e-05,-4.18e-05,0
STARLINK-31902,2024-084N,2024-06-01T06:09:40.462848,15.50561363,0.0001427,42.9979,121.5953,249.9901,110.0805,0,U,59666,999,517,-5.0691e-05,-3.312e-05,0
STARLINK-31913,2024-084P,2024-06-01T14:00:01.000224,15.40700096,0.0001094,42.9989,120.0029,257.941,356.0578,0,U,59667,999,527,-0.00072747,-0.00030569,0
STARLINK-31866,2024-084Q,2024-06-01T04:35:25.753056,15.50567933,0.0001679,42.9994,121.961,266.6636,93.4032,0,U,59668,999,516,-1.0958e-05,-9.84e-06,0
STARLINK-31917,2024-084R,2024-06-01T09:14:11.653440,15.50579004,0.0001509,42.9997,120.8357,251.0613,109.0084,0,U,59669,999,519,4.992e-05,2.588e-05,0
STARLINK-31860,2024-084S,2024-06-01T14:00:01.000224,15.40726017,0.0001318,42.9993,119.8198,280.7733,47.9014,0,U,59670,999,519,-0.0011395,-0.00047647,0
STARLINK-31854,2024-084T,2024-06-01T08:09:47.106720,15.50578761,0.0001701,43.002,120.5092,271.6461,88.4204,0,U,59671,999,517,6.7617e-05,3.627e-05,0
STARLINK-31842,2024-084U,2024-06-01T14:00:01.000224,15.40705316,0.0001424,42.9994,119.7604,286.0698,67.4926,0,U,59672,999,519,-0.00031088,-0.00013269,0
STARLINK-31871,2024-084V,2024-06-01T06:06:42.509952,15.50561554,0.0001597,42.9981,121.5775,258.1947,101.8734,0,U,59673,999,517,-6.1752e-05,-3.96e-05,0
STARLINK-31875,2024-084W,2024-06-01T14:00:01.000224,15.40726767,0.0001633,43,119.9095,283.2218,8.1166,0,U,59674,999,533,-0.00098399,-0.00041223,0
STARLINK-31877,2024-084X,2024-06-01T04:32:57.602976,15.5056668,0.0001899,42.9995,121.9461,261.1281,98.9364,0,U,59675,999,516,-3.779e-05,-2.557e-05,0
STARLINK-31884,2024-084Y,2024-06-01T14:00:01.000224,15.40731939,0.0001644,43.0002,119.2669,281.478,283.5377,0,U,59676,999,532,-0.0014256,-0.00059456,0
2024-085A,2024-085A,2024-06-01T13:31:17.685696,15.22780643,0.0014745,97.4044,228.0156,175.902,184.234,0,U,59677,999,386,0.0010721,0.00025113,0
2024-085B,2024-085B,2024-06-01T13:22:53.146848,15.22827747,0.0015669,97.4101,228.0419,185.3771,174.73,0,U,59678,999,386,0.00070111,0.00016409,0
2024-085C,2024-085C,2024-06-01T13:41:07.351872,15.21831406,0.0015174,97.4048,228.0075,174.4585,185.6822,0,U,59679,999,386,0.00039579,8.954e-05,0
2024-085D,2024-085D,2024-06-01T13:42:57.759840,15.2184075,0.0014815,97.4047,228.006,172.5665,187.5793,0,U,59680,999,386,0.00049481,0.00011216,0
2024-085E,2024-085E,2024-06-01T13:30:16.884288,15.3419374,0.0055036,97.3737,228.3915,262.6804,96.8181,0,U,59681,999,389,0.00035053,0.00012105,0
STARLINK-32108,2024-086A,2024-06-01T14:00:01.000224,15.52889609,0.0001453,42.9997,141.2478,264.8041,66.3293,0,U,59682,999,488,-0.030783,-0.0174834,0
STARLINK-32080,2024-086B,2024-06-01T14:00:01.000224,15.50561947,0.0001567,43.0001,141.471,294.6597,305.5991,0,U,59683,999,484,0.0012054,0.00070974,0
STARLINK-32091,2024-086C,2024-06-01T10:01:14.337984,15.4065964,6.08e-05,43.0012,144.2814,247.3314,112.7479,0,U,59684,999,488,-0.00056399,-0.00023756,0
STARLINK-32085,2024-086D,2024-06-01T14:00:01.000224,15.41179375,0.0001095,43.0002,142.9061,278.6875,96.1487,0,U,59685,999,493,-0.017787,-0.00699238,0
STARLINK-32100,2024-086E,2024-06-01T14:00:01.000224,15.72981132,4.8e-05,42.9993,140.351,143.6492,189.5385,0,U,59686,999,489,0.0009257,0.0013168,0
STARLINK-32089,2024-086F,2024-06-01T14:00:01.000224,15.40701015,0.0001045,42.9999,143.1768,244.397,18.7116,0,U,59687,999,482,-0.00023696,-0.00010188,0
STARLINK-32103,2024-086G,2024-06-01T08:40:47.266752,15.40728929,0.000101,43,144.7238,250.8355,109.2392,0,U,59688,999,486,0.00050639,0.00020928,0
